{
  "type": "FeatureCollection",
  "features": [
    {
      "type": "Feature",
      "properties": {
        "norad_id": 41877,
        "name": "RESOURCESAT-2A",
        "group": "resource",
        "lat": -2.975738276832781,
        "lon": -119.8126687212253,
        "alt_km": 822.7279664107264,
        "timestamp": "2025-12-16T19:34:23.922502+00:00",
        "meta_object_name": "RESOURCESAT-2A",
        "meta_object_id": "2016-074A",
        "meta_epoch": "2025-12-16T00:08:04.202016",
        "meta_mean_motion": 14.21600383,
        "meta_eccentricity": 0.00012163,
        "meta_inclination": 98.7756,
        "meta_ra_of_asc_node": 59.8423,
        "meta_arg_of_pericenter": 239.3955,
        "meta_mean_anomaly": 120.7102,
        "meta_ephemeris_type": 0,
        "meta_classification_type": "U",
        "meta_norad_cat_id": 41877,
        "meta_element_set_no": 999,
        "meta_rev_at_epoch": 46827,
        "meta_bstar": -2.7571369e-05,
        "meta_mean_motion_dot": -1.05e-06,
        "meta_mean_motion_ddot": 0,
        "tle_line1": "1 41877U 16074A   25350.00560419 -.00000105  00000+0 -27571-4 0  9998",
        "tle_line2": "2 41877  98.7756  59.8423 0001216 239.3955 120.7102 14.21600383468276"
      },
      "geometry": {
        "type": "Point",
        "coordinates": [
          -119.8126687212253,
          -2.975738276832781
        ]
      }
    },
    {
      "type": "Feature",
      "properties": {
        "norad_id": 41948,
        "name": "CARTOSAT-2D",
        "group": "resource",
        "lat": -0.19681192944171377,
        "lon": -131.7742052752753,
        "alt_km": 508.16592629862225,
        "timestamp": "2025-12-16T19:34:23.922512+00:00",
        "meta_object_name": "CARTOSAT-2D",
        "meta_object_id": "2017-008A",
        "meta_epoch": "2025-12-15T23:48:54.575712",
        "meta_mean_motion": 15.19291817,
        "meta_eccentricity": 0.00049303,
        "meta_inclination": 97.4389,
        "meta_ra_of_asc_node": 47.4407,
        "meta_arg_of_pericenter": 151.8986,
        "meta_mean_anomaly": 208.2516,
        "meta_ephemeris_type": 0,
        "meta_classification_type": "U",
        "meta_norad_cat_id": 41948,
        "meta_element_set_no": 999,
        "meta_rev_at_epoch": 48976,
        "meta_bstar": 0.00016750356,
        "meta_mean_motion_dot": 3.467e-05,
        "meta_mean_motion_ddot": 0,
        "tle_line1": "1 41948U 17008A   25349.99229833  .00003467  00000+0  16750-3 0  9991",
        "tle_line2": "2 41948  97.4389  47.4407 0004930 151.8986 208.2516 15.19291817489760"
      },
      "geometry": {
        "type": "Point",
        "coordinates": [
          -131.7742052752753,
          -0.19681192944171377
        ]
      }
    },
    {
      "type": "Feature",
      "properties": {
        "norad_id": 42063,
        "name": "SENTINEL-2B",
        "group": "resource",
        "lat": -71.53123944567726,
        "lon": 90.04903177894481,
        "alt_km": 797.0697585448688,
        "timestamp": "2025-12-16T19:34:23.922523+00:00",
        "meta_object_name": "SENTINEL-2B",
        "meta_object_id": "2017-013A",
        "meta_epoch": "2025-12-15T23:46:36.833376",
        "meta_mean_motion": 14.30816621,
        "meta_eccentricity": 0.00011587,
        "meta_inclination": 98.5714,
        "meta_ra_of_asc_node": 62.3909,
        "meta_arg_of_pericenter": 91.8927,
        "meta_mean_anomaly": 268.2388,
        "meta_ephemeris_type": 0,
        "meta_classification_type": "U",
        "meta_norad_cat_id": 42063,
        "meta_element_set_no": 999,
        "meta_rev_at_epoch": 45844,
        "meta_bstar": -1.8164603e-05,
        "meta_mean_motion_dot": -9.1e-07,
        "meta_mean_motion_ddot": 0,
        "tle_line1": "1 42063U 17013A   25349.99070409 -.00000091  00000+0 -18165-4 0  9994",
        "tle_line2": "2 42063  98.5714  62.3909 0001158  91.8927 268.2388 14.30816621458445"
      },
      "geometry": {
        "type": "Point",
        "coordinates": [
          90.04903177894481,
          -71.53123944567726
        ]
      }
    },
    {
      "type": "Feature",
      "properties": {
        "norad_id": 42767,
        "name": "CARTOSAT-2E",
        "group": "resource",
        "lat": 82.53874680079004,
        "lon": -41.54111327162663,
        "alt_km": 501.5494774317076,
        "timestamp": "2025-12-16T19:34:23.922533+00:00",
        "meta_object_name": "CARTOSAT-2E",
        "meta_object_id": "2017-036C",
        "meta_epoch": "2025-12-15T22:37:43.868640",
        "meta_mean_motion": 15.19233439,
        "meta_eccentricity": 0.00020822,
        "meta_inclination": 97.4561,
        "meta_ra_of_asc_node": 47.4878,
        "meta_arg_of_pericenter": 221.1388,
        "meta_mean_anomaly": 138.969,
        "meta_ephemeris_type": 0,
        "meta_classification_type": "U",
        "meta_norad_cat_id": 42767,
        "meta_element_set_no": 999,
        "meta_rev_at_epoch": 47032,
        "meta_bstar": 0.00020774837,
        "meta_mean_motion_dot": 4.308e-05,
        "meta_mean_motion_ddot": 0,
        "tle_line1": "1 42767U 17036C   25349.94286885  .00004308  00000+0  20775-3 0  9994",
        "tle_line2": "2 42767  97.4561  47.4878 0002082 221.1388 138.9690 15.19233439470327"
      },
      "geometry": {
        "type": "Point",
        "coordinates": [
          -41.54111327162663,
          82.53874680079004
        ]
      }
    },
    {
      "type": "Feature",
      "properties": {
        "norad_id": 42920,
        "name": "FORMOSAT-5",
        "group": "resource",
        "lat": -43.70262359094416,
        "lon": -122.91191591412664,
        "alt_km": 725.2904949184458,
        "timestamp": "2025-12-16T19:34:23.922545+00:00",
        "meta_object_name": "FORMOSAT-5",
        "meta_object_id": "2017-049A",
        "meta_epoch": "2025-12-15T22:40:56.443872",
        "meta_mean_motion": 14.51007308,
        "meta_eccentricity": 0.00097992,
        "meta_inclination": 98.2451,
        "meta_ra_of_asc_node": 64.2006,
        "meta_arg_of_pericenter": 284.4672,
        "meta_mean_anomaly": 75.5435,
        "meta_ephemeris_type": 0,
        "meta_classification_type": "U",
        "meta_norad_cat_id": 42920,
        "meta_element_set_no": 999,
        "meta_rev_at_epoch": 44010,
        "meta_bstar": 6.1705027e-05,
        "meta_mean_motion_dot": 2e-06,
        "meta_mean_motion_ddot": 0,
        "tle_line1": "1 42920U 17049A   25349.94509773  .00000200  00000+0  61705-4 0  9999",
        "tle_line2": "2 42920  98.2451  64.2006 0009799 284.4672  75.5435 14.51007308440100"
      },
      "geometry": {
        "type": "Point",
        "coordinates": [
          -122.91191591412664,
          -43.70262359094416
        ]
      }
    },
    {
      "type": "Feature",
      "properties": {
        "norad_id": 42969,
        "name": "SENTINEL-5P",
        "group": "resource",
        "lat": 21.059109090903355,
        "lon": 112.77445726876338,
        "alt_km": 826.5975131214991,
        "timestamp": "2025-12-16T19:34:23.922556+00:00",
        "meta_object_name": "SENTINEL-5P",
        "meta_object_id": "2017-064A",
        "meta_epoch": "2025-12-15T19:08:43.842624",
        "meta_mean_motion": 14.19518328,
        "meta_eccentricity": 9.964e-05,
        "meta_inclination": 98.7787,
        "meta_ra_of_asc_node": 288.3547,
        "meta_arg_of_pericenter": 88.7839,
        "meta_mean_anomaly": 271.3451,
        "meta_ephemeris_type": 0,
        "meta_classification_type": "U",
        "meta_norad_cat_id": 42969,
        "meta_element_set_no": 999,
        "meta_rev_at_epoch": 42354,
        "meta_bstar": 5.787899e-05,
        "meta_mean_motion_dot": 7.8e-07,
        "meta_mean_motion_ddot": 0,
        "tle_line1": "1 42969U 17064A   25349.79772966  .00000078  00000+0  57879-4 0  9998",
        "tle_line2": "2 42969  98.7787 288.3547 0000996  88.7839 271.3451 14.19518328423545"
      },
      "geometry": {
        "type": "Point",
        "coordinates": [
          112.77445726876338,
          21.059109090903355
        ]
      }
    },
    {
      "type": "Feature",
      "properties": {
        "norad_id": 42987,
        "name": "SKYSAT-C11",
        "group": "resource",
        "lat": -12.525994961833948,
        "lon": 130.06577761898814,
        "alt_km": 428.6099813577457,
        "timestamp": "2025-12-16T19:34:23.922566+00:00",
        "meta_object_name": "SKYSAT-C11",
        "meta_object_id": "2017-068A",
        "meta_epoch": "2025-12-15T21:54:09.137664",
        "meta_mean_motion": 15.47585629,
        "meta_eccentricity": 0.00011396,
        "meta_inclination": 97.4135,
        "meta_ra_of_asc_node": 127.4828,
        "meta_arg_of_pericenter": 104.2788,
        "meta_mean_anomaly": 255.8588,
        "meta_ephemeris_type": 0,
        "meta_classification_type": "U",
        "meta_norad_cat_id": 42987,
        "meta_element_set_no": 999,
        "meta_rev_at_epoch": 45480,
        "meta_bstar": 0.00033526081,
        "meta_mean_motion_dot": 0.00017192,
        "meta_mean_motion_ddot": 0,
        "tle_line1": "1 42987U 17068A   25349.91260576  .00017192  00000+0  33526-3 0  9992",
        "tle_line2": "2 42987  97.4135 127.4828 0001139 104.2788 255.8588 15.47585629454801"
      },
      "geometry": {
        "type": "Point",
        "coordinates": [
          130.06577761898814,
          -12.525994961833948
        ]
      }
    }
  ]
}